{
  "type": "FeatureCollection",
  "features": [
    {
      "type": "Feature",
      "properties": {
        "norad_id": 34079,
        "name": "IRIDIUM 33 DEB",
        "group": "iridium-33-debris",
        "lat": 66.35308043129241,
        "lon": -175.31789099929537,
        "alt_km": 612.0064902990953,
        "timestamp": "2025-12-03T04:52:30.022860+00:00",
        "meta_object_name": "IRIDIUM 33 DEB",
        "meta_object_id": "1997-051CN",
        "meta_epoch": "2025-12-02T20:49:31.052928",
        "meta_mean_motion": 14.83114915,
        "meta_eccentricity": 0.0006779,
        "meta_inclination": 86.3787,
        "meta_ra_of_asc_node": 13.1506,
        "meta_arg_of_pericenter": 37.8553,
        "meta_mean_anomaly": 85.7875,
        "meta_ephemeris_type": 0,
        "meta_classification_type": "U",
        "meta_norad_cat_id": 34079,
        "meta_element_set_no": 999,
        "meta_rev_at_epoch": 88831,
        "meta_bstar": 0.0020737,
        "meta_mean_motion_dot": 0.00016948,
        "meta_mean_motion_ddot": 0,
        "tle_line1": "1 34079U 97051CN  25336.86772052  .00016948  00000+0  20737-2 0  9999",
        "tle_line2": "2 34079  86.3787  13.1506 0006779  37.8553  85.7875 14.83114915888315"
      },
      "geometry": {
        "type": "Point",
        "coordinates": [
          -175.31789099929537,
          66.35308043129241
        ]
      }
    },
    {
      "type": "Feature",
      "properties": {
        "norad_id": 34088,
        "name": "IRIDIUM 33 DEB",
        "group": "iridium-33-debris",
        "lat": -58.793468458938065,
        "lon": 29.115048891970257,
        "alt_km": 603.1908250143715,
        "timestamp": "2025-12-03T04:52:30.022870+00:00",
        "meta_object_name": "IRIDIUM 33 DEB",
        "meta_object_id": "1997-051CX",
        "meta_epoch": "2025-12-02T16:49:00.759072",
        "meta_mean_motion": 14.90581573,
        "meta_eccentricity": 0.0005128,
        "meta_inclination": 86.3862,
        "meta_ra_of_asc_node": 35.3339,
        "meta_arg_of_pericenter": 213.7318,
        "meta_mean_anomaly": 273.0169,
        "meta_ephemeris_type": 0,
        "meta_classification_type": "U",
        "meta_norad_cat_id": 34088,
        "meta_element_set_no": 999,
        "meta_rev_at_epoch": 88592,
        "meta_bstar": 0.0032335,
        "meta_mean_motion_dot": 0.00031763,
        "meta_mean_motion_ddot": 0,
        "tle_line1": "1 34088U 97051CX  25336.70070323  .00031763  00000+0  32335-2 0  9993",
        "tle_line2": "2 34088  86.3862  35.3339 0005128 213.7318 273.0169 14.90581573885928"
      },
      "geometry": {
        "type": "Point",
        "coordinates": [
          29.115048891970257,
          -58.793468458938065
        ]
      }
    },
    {
      "type": "Feature",
      "properties": {
        "norad_id": 34091,
        "name": "IRIDIUM 33 DEB",
        "group": "iridium-33-debris",
        "lat": 77.51496420048306,
        "lon": -125.5967465564813,
        "alt_km": 636.33758459206,
        "timestamp": "2025-12-03T04:52:30.022882+00:00",
        "meta_object_name": "IRIDIUM 33 DEB",
        "meta_object_id": "1997-051DA",
        "meta_epoch": "2025-12-02T05:42:26.763264",
        "meta_mean_motion": 14.80503091,
        "meta_eccentricity": 0.0032917,
        "meta_inclination": 86.342,
        "meta_ra_of_asc_node": 71.638,
        "meta_arg_of_pericenter": 331.035,
        "meta_mean_anomaly": 28.9043,
        "meta_ephemeris_type": 0,
        "meta_classification_type": "U",
        "meta_norad_cat_id": 34091,
        "meta_element_set_no": 999,
        "meta_rev_at_epoch": 87711,
        "meta_bstar": 0.0059169,
        "meta_mean_motion_dot": 0.00045975,
        "meta_mean_motion_ddot": 0,
        "tle_line1": "1 34091U 97051DA  25336.23780976  .00045975  00000+0  59169-2 0  9991",
        "tle_line2": "2 34091  86.3420  71.6380 0032917 331.0350  28.9043 14.80503091877115"
      },
      "geometry": {
        "type": "Point",
        "coordinates": [
          -125.5967465564813,
          77.51496420048306
        ]
      }
    },
    {
      "type": "Feature",
      "properties": {
        "norad_id": 34097,
        "name": "IRIDIUM 33 DEB",
        "group": "iridium-33-debris",
        "lat": 34.02737005186393,
        "lon": -176.9542801544873,
        "alt_km": 796.7743600947506,
        "timestamp": "2025-12-03T04:52:30.022893+00:00",
        "meta_object_name": "IRIDIUM 33 DEB",
        "meta_object_id": "1997-051DG",
        "meta_epoch": "2025-12-02T19:50:04.615584",
        "meta_mean_motion": 14.34654028,
        "meta_eccentricity": 0.0083724,
        "meta_inclination": 86.2009,
        "meta_ra_of_asc_node": 5.7833,
        "meta_arg_of_pericenter": 34.3438,
        "meta_mean_anomaly": 326.313,
        "meta_ephemeris_type": 0,
        "meta_classification_type": "U",
        "meta_norad_cat_id": 34097,
        "meta_element_set_no": 999,
        "meta_rev_at_epoch": 86977,
        "meta_bstar": 0.0016604,
        "meta_mean_motion_dot": 4.904e-05,
        "meta_mean_motion_ddot": 0,
        "tle_line1": "1 34097U 97051DG  25336.82644231  .00004904  00000+0  16604-2 0  9999",
        "tle_line2": "2 34097  86.2009   5.7833 0083724  34.3438 326.3130 14.34654028869777"
      },
      "geometry": {
        "type": "Point",
        "coordinates": [
          -176.9542801544873,
          34.02737005186393
        ]
      }
    },
    {
      "type": "Feature",
      "properties": {
        "norad_id": 34145,
        "name": "IRIDIUM 33 DEB",
        "group": "iridium-33-debris",
        "lat": 23.019768761222963,
        "lon": 155.16133469542453,
        "alt_km": 717.759927974791,
        "timestamp": "2025-12-03T04:52:30.022904+00:00",
        "meta_object_name": "IRIDIUM 33 DEB",
        "meta_object_id": "1997-051DY",
        "meta_epoch": "2025-12-02T18:09:46.439136",
        "meta_mean_motion": 14.4217642,
        "meta_eccentricity": 0.0055248,
        "meta_inclination": 86.2115,
        "meta_ra_of_asc_node": 336.9733,
        "meta_arg_of_pericenter": 125.5687,
        "meta_mean_anomaly": 235.0681,
        "meta_ephemeris_type": 0,
        "meta_classification_type": "U",
        "meta_norad_cat_id": 34145,
        "meta_element_set_no": 999,
        "meta_rev_at_epoch": 87494,
        "meta_bstar": 0.0012883,
        "meta_mean_motion_dot": 4.339e-05,
        "meta_mean_motion_ddot": 0,
        "tle_line1": "1 34145U 97051DY  25336.75678749  .00004339  00000+0  12883-2 0  9993",
        "tle_line2": "2 34145  86.2115 336.9733 0055248 125.5687 235.0681 14.42176420874942"
      },
      "geometry": {
        "type": "Point",
        "coordinates": [
          155.16133469542453,
          23.019768761222963
        ]
      }
    },
    {
      "type": "Feature",
      "properties": {
        "norad_id": 34146,
        "name": "IRIDIUM 33 DEB",
        "group": "iridium-33-debris",
        "lat": -76.96591893235052,
        "lon": -22.29098622442951,
        "alt_km": 720.655199268208,
        "timestamp": "2025-12-03T04:52:30.022914+00:00",
        "meta_object_name": "IRIDIUM 33 DEB",
        "meta_object_id": "1997-051DZ",
        "meta_epoch": "2025-12-02T13:15:13.588704",
        "meta_mean_motion": 14.48931558,
        "meta_eccentricity": 0.00249634,
        "meta_inclination": 86.2839,
        "meta_ra_of_asc_node": 354.3012,
        "meta_arg_of_pericenter": 258.2164,
        "meta_mean_anomaly": 231.2371,
        "meta_ephemeris_type": 0,
        "meta_classification_type": "U",
        "meta_norad_cat_id": 34146,
        "meta_element_set_no": 999,
        "meta_rev_at_epoch": 87959,
        "meta_bstar": 0.0012342017,
        "meta_mean_motion_dot": 4.71e-05,
        "meta_mean_motion_ddot": 0,
        "tle_line1": "1 34146U 97051DZ  25336.55224061  .00004710  00000+0  12342-2 0  9999",
        "tle_line2": "2 34146  86.2839 354.3012 0024963 258.2164 231.2371 14.48931558879591"
      },
      "geometry": {
        "type": "Point",
        "coordinates": [
          -22.29098622442951,
          -76.96591893235052
        ]
      }
    },
    {
      "type": "Feature",
      "properties": {
        "norad_id": 34159,
        "name": "IRIDIUM 33 DEB",
        "group": "iridium-33-debris",
        "lat": -1.9845842507757931,
        "lon": 52.18019448756223,
        "alt_km": 751.7300044221929,
        "timestamp": "2025-12-03T04:52:30.022925+00:00",
        "meta_object_name": "IRIDIUM 33 DEB",
        "meta_object_id": "1997-051EN",
        "meta_epoch": "2025-12-02T17:11:51.335232",
        "meta_mean_motion": 14.38452068,
        "meta_eccentricity": 0.002654,
        "meta_inclination": 86.3516,
        "meta_ra_of_asc_node": 52.5142,
        "meta_arg_of_pericenter": 322.9062,
        "meta_mean_anomaly": 37.0301,
        "meta_ephemeris_type": 0,
        "meta_classification_type": "U",
        "meta_norad_cat_id": 34159,
        "meta_element_set_no": 999,
        "meta_rev_at_epoch": 87815,
        "meta_bstar": 0.00053465,
        "meta_mean_motion_dot": 1.657e-05,
        "meta_mean_motion_ddot": 0,
        "tle_line1": "1 34159U 97051EN  25336.71656638  .00001657  00000+0  53465-3 0  9999",
        "tle_line2": "2 34159  86.3516  52.5142 0026540 322.9062  37.0301 14.38452068878157"
      },
      "geometry": {
        "type": "Point",
        "coordinates": [
          52.18019448756223,
          -1.9845842507757931
        ]
      }
    }
  ]
}